[{"OBJECT_NAME":"HORS 2","OBJECT_ID":"2023-091AG","EPOCH":"2026-03-09T22:11:34.810944","MEAN_MOTION":15.2928008,"ECCENTRICITY":0.00098173,"INCLINATION":97.5195,"RA_OF_ASC_NODE":134.7443,"ARG_OF_PERICENTER":79.3164,"MEAN_ANOMALY":280.9181,"EPHEMERIS_TYPE":0,"CLASSIFICATION_TYPE":"U","NORAD_CAT_ID":57196,"ELEMENT_SET_NO":999,"REV_AT_EPOCH":14934,"BSTAR":0.00059338338,"MEAN_MOTION_DOT":0.00016821,"MEAN_MOTION_DDOT":0},{"OBJECT_NAME":"STARLINK-32420","OBJECT_ID":"2024-207V","EPOCH":"2026-03-09T22:33:23.291424","MEAN_MOTION":15.27613225,"ECCENTRICITY":0.00019085,"INCLINATION":43.0006,"RA_OF_ASC_NODE":280.0405,"ARG_OF_PERICENTER":276.6086,"MEAN_ANOMALY":83.4549,"EPHEMERIS_TYPE":0,"CLASSIFICATION_TYPE":"U","NORAD_CAT_ID":61931,"ELEMENT_SET_NO":999,"REV_AT_EPOCH":7476,"BSTAR":0.00099763493,"MEAN_MOTION_DOT":0.00027321,"MEAN_MOTION_DDOT":0}]
